IRIDIUM 36              
1 24967U 97056C   24361.72142127  .00001028  00000+0  33832-3 0  9999
2 24967  86.3965 245.4015 0001898  86.9127 273.2288 14.37312835427447
IRIDIUM 39              
1 25042U 97069D   24361.76400016  .00001870  00000+0  48963-3 0  9992
2 25042  86.3911 285.0642 0018524 155.7345 204.4736 14.48756745424254
IRIDIUM 38              
1 25043U 97069E   24361.38715355  .00001355  00000+0  44361-3 0  9992
2 25043  86.3957 305.8791 0001509  28.8957 331.2324 14.37806123421124
IRIDIUM 42              
1 25077U 97077A   24361.60053018  .00001392  00000+0  47229-3 0  9991
2 25077  86.3961 311.7475 0001967  67.2200 292.9204 14.36066698416428
IRIDIUM 44              
1 25078U 97077B   24361.53325873  .00001349  00000+0  42285-3 0  9994
2 25078  86.3954 294.1508 0001068 139.2784 220.8495 14.39935334418857
IRIDIUM 45              
1 25104U 97082A   24361.43861261  .00031386  00000+0  13984-2 0  9992
2 25104  86.3636 131.2306 0134998 254.8927 103.7345 15.13374294425837
IRIDIUM 24              
1 25105U 97082B   24361.72706251  .00001494  00000+0  45177-3 0  9999
2 25105  86.3931 153.4116 0009542 291.7913  68.2271 14.41759898418610
IRIDIUM 51              
1 25262U 98018A   24361.46848942  .00053765  00000+0  17728-2 0  9996
2 25262  86.3906 140.3743 0114013 187.1217 172.8417 15.25087341420574
